QIANFAN-25              
1 61558U 24185G   25259.60322531  .00000406  00000+0  24056-3 0  9999
2 61558  88.9736  88.0576 0007803 201.5692 158.5162 14.05788650 57267
QIANFAN-26              
1 61559U 24185H   25259.59847285  .00000250  00000+0  23745-3 0  9997
2 61559  88.9744  89.1633 0003734 279.7102  80.3642 13.77739844 56673
QIANFAN-27              
1 61560U 24185J   25259.60216164  .00000463  00000+0  18374-3 0  9995
2 61560  88.9740  87.1669 0006958 200.7001 159.3913 14.27163647 57735
QIANFAN-28              
1 61561U 24185K   25259.55371978  .00000724  00000+0  28756-3 0  9990
2 61561  88.9755  87.1693 0006062 199.7166 160.3795 14.27753971 57739
QIANFAN-29              
1 61562U 24185L   25259.56580289  .00000177  00000+0  25618-3 0  9995
2 61562  88.9721  90.3261 0008691 311.1736  48.8665 13.50965881 56020
QIANFAN-30              
1 61563U 24185M   25259.54880758  .00000169  00000+0  24742-3 0  9996
2 61563  88.9741  89.8197 0005855 294.8221  65.2320 13.49943681 56303
QIANFAN-31              
1 61564U 24185N   25259.58675478  .00000165  00000+0  21193-3 0  9995
2 61564  88.9726  89.7558 0005400 291.8853  68.1728 13.57915965 56331
QIANFAN-32              
1 61565U 24185P   25259.56558770  .00000165  00000+0  23791-3 0  9995
2 61565  88.9784  89.9258 0008187 323.7256  36.3339 13.50695959 56271
